ONEWEB-0128             
1 47274U 20100S   24144.51168616  .00000429  00000+0  11561-2 0  9996
2 47274  87.8935 140.9294 0002294  93.0747 267.0644 13.12444110165756
ONEWEB-0129             
1 47275U 20100T   24143.49993698 -.00000076  00000+0 -24641-3 0  9993
2 47275  87.8928 141.0989 0003078  59.6724 300.4708 13.12445988165551
ONEWEB-0130             
1 47276U 20100U   24144.06221734  .00000374  00000+0  10040-2 0  9999
2 47276  87.8926 140.9954 0002186  86.6358 273.5021 13.12443719165594
ONEWEB-0131             
1 47277U 20100V   24144.05901184  .00000410  00000+0  11045-2 0  9990
2 47277  87.8930 141.0101 0002099  90.2667 269.8702 13.12445228165639
ONEWEB-0132             
1 47278U 20100W   24143.47772070 -.00000341  00000+0 -98252-3 0  9997
2 47278  87.8928 141.1277 0001894  93.5350 266.5996 13.12442430165450
ONEWEB-0133             
1 47279U 20100X   24144.48467388 -.00000370  00000+0 -10635-2 0  9993
2 47279  87.8925 140.9275 0002111  92.1101 268.0269 13.12443113165746
ONEWEB-0134             
1 47280U 20100Y   24144.53073498  .00000302  00000+0  80313-3 0  9990
2 47280  87.8922 140.9065 0002304  87.9869 272.1523 13.12443635165725
ONEWEB-0135             
1 47281U 20100Z   24143.88907517  .00000139  00000+0  35013-3 0  9991
2 47281  87.8929 141.0480 0002146  88.6470 271.4904 13.12442806165663
